{
    "type": "FeatureCollection",
    "name": "travels",
    "crs": {
        "type": "name",
        "properties": {
            "name": "urn:ogc:def:crs:OGC:1.3:CRS84"
        }
    },
    "features": [
        {
            "type": "Feature",
            "properties": {
                "fid": 2,
                "kind": "flight",
                "style": null,
                "from_poi": "LAX",
                "to_poi": "Denver"
            },
            "geometry": {
                "type": "LineString",
                "coordinates": [
                    [
                        8.562586212062751,
                        47.453189435796887
                    ],
                    [
                        8.218923474821482,
                        47.916288650418792
                    ],
                    [
                        7.863316326353798,
                        48.371229084344613
                    ],
                    [
                        7.495872927388882,
                        48.817989424525024
                    ],
                    [
                        7.116705038745211,
                        49.256553963728393
                    ],
                    [
                        6.7259279873376,
                        49.6869123460122
                    ],
                    [
                        6.323660631099617,
                        50.109059311778751
                    ],
                    [
                        5.910025322831999,
                        50.522994443166567
                    ],
                    [
                        5.485147872988087,
                        50.928721910477805
                    ],
                    [
                        5.049157511407572,
                        51.326250220292629
                    ],
                    [
                        4.602186848010215,
                        51.715591965870452
                    ],
                    [
                        4.144371832461498,
                        52.096763580389194
                    ],
                    [
                        3.675851712822459,
                        52.469785093524962
                    ],
                    [
                        3.196768993196285,
                        52.834679891827257
                    ],
                    [
                        2.707269390384551,
                        53.191474483298961
                    ],
                    [
                        2.207501789566315,
                        53.540198266545865
                    ],
                    [
                        1.697618199013532,
                        53.880883304817978
                    ],
                    [
                        1.177773703856483,
                        54.213564105223703
                    ],
                    [
                        0.648126418913456,
                        54.538277403359643
                    ],
                    [
                        0.108837440598839,
                        54.855061953561027
                    ],
                    [
                        -0.439929202075613,
                        55.163958324943792
                    ],
                    [
                        -0.998006597391507,
                        55.46500870337578
                    ],
                    [
                        -1.56522500169133,
                        55.758256699484335
                    ],
                    [
                        -2.141411891007322,
                        56.04374716277875
                    ],
                    [
                        -2.726392013536014,
                        56.321526001939397
                    ],
                    [
                        -3.319987442942449,
                        56.59164001130101
                    ],
                    [
                        -3.922017632477889,
                        56.85413670353504
                    ],
                    [
                        -4.532299469894524,
                        57.109064148515394
                    ],
                    [
                        -5.150647333140524,
                        57.356470818333051
                    ],
                    [
                        -5.776873146818462,
                        57.59640543840856
                    ],
                    [
                        -6.410786439389913,
                        57.828916844635891
                    ],
                    [
                        -7.052194401108895,
                        58.054053846477807
                    ],
                    [
                        -7.700901942666487,
                        58.271865095921427
                    ],
                    [
                        -8.356711754528755,
                        58.48239896219161
                    ],
                    [
                        -9.019424366950055,
                        58.685703412111828
                    ],
                    [
                        -9.688838210643299,
                        58.881825895993863
                    ],
                    [
                        -10.364749678088861,
                        59.070813238931855
                    ],
                    [
                        -11.046953185463424,
                        59.252711537371489
                    ],
                    [
                        -11.7352412351699,
                        59.42756606082051
                    ],
                    [
                        -12.429404478949504,
                        59.595421158564434
                    ],
                    [
                        -13.12923178155666,
                        59.756320171249563
                    ],
                    [
                        -13.834510284977457,
                        59.910305347194118
                    ],
                    [
                        -14.545025473172114,
                        60.057417763288434
                    ],
                    [
                        -15.260561237321719,
                        60.197697250345783
                    ],
                    [
                        -15.980899941559437,
                        60.331182322766971
                    ],
                    [
                        -16.705822489166192,
                        60.457910112383686
                    ],
                    [
                        -17.435108389210654,
                        60.577916306348449
                    ],
                    [
                        -18.168535823613315,
                        60.691235088942101
                    ],
                    [
                        -18.90588171461421,
                        60.797899087173782
                    ],
                    [
                        -19.646921792623768,
                        60.897939320052124
                    ],
                    [
                        -20.391430664436211,
                        60.991385151411379
                    ],
                    [
                        -21.139181881784658,
                        61.078264246181078
                    ],
                    [
                        -21.889948010217172,
                        61.158602529993125
                    ],
                    [
                        -22.643500698272742,
                        61.232424152025665
                    ],
                    [
                        -23.39961074693619,
                        61.299751450989611
                    ],
                    [
                        -24.158048179350857,
                        61.36060492416896
                    ],
                    [
                        -24.918582310767906,
                        61.415003199433293
                    ],
                    [
                        -25.680981818710894,
                        61.462963010146652
                    ],
                    [
                        -26.445014813334343,
                        61.504499172904282
                    ],
                    [
                        -27.210448907954863,
                        61.539624568035443
                    ],
                    [
                        -27.977051289733424,
                        61.568350122816945
                    ],
                    [
                        -28.744588790487196,
                        61.590684797350448
                    ],
                    [
                        -29.512827957609513,
                        61.606635573062178
                    ],
                    [
                        -30.281535125076331,
                        61.616207443792248
                    ],
                    [
                        -31.050476484517592,
                        61.619403409447536
                    ],
                    [
                        -31.81941815633191,
                        61.616224472199463
                    ],
                    [
                        -32.588126260822868,
                        61.606669635215567
                    ],
                    [
                        -33.356366989335406,
                        61.590735903921178
                    ],
                    [
                        -34.12390667537057,
                        61.568418289794842
                    ],
                    [
                        -34.890511865657032,
                        61.539709816708651
                    ],
                    [
                        -35.655949391157733,
                        61.504601529832016
                    ],
                    [
                        -36.419986437990104,
                        61.463082507124973
                    ],
                    [
                        -37.182390618238252,
                        61.41513987345391
                    ],
                    [
                        -37.942930040635567,
                        61.360758817370794
                    ],
                    [
                        -38.701373381096325,
                        61.299922610602977
                    ],
                    [
                        -39.457489953074713,
                        61.232612630309205
                    ],
                    [
                        -40.211049777729947,
                        61.15880838416286
                    ],
                    [
                        -40.961823653876188,
                        61.078487538331757
                    ],
                    [
                        -41.709583227695923,
                        60.991625948429729
                    ],
                    [
                        -42.454101062195491,
                        60.898197693521894
                    ],
                    [
                        -43.195150706381966,
                        60.798175113272229
                    ],
                    [
                        -43.93250676413993,
                        60.691528848327636
                    ],
                    [
                        -44.66594496278752,
                        60.578227884039357
                    ],
                    [
                        -45.395242221290744,
                        60.458239597627419
                    ],
                    [
                        -46.120176718115317,
                        60.331529808899774
                    ],
                    [
                        -46.840527958695461,
                        60.198062834642421
                    ],
                    [
                        -47.556076842499074,
                        60.057801546801606
                    ],
                    [
                        -48.266605729668875,
                        59.910707434583202
                    ],
                    [
                        -48.971898507219308,
                        59.756740670598376
                    ],
                    [
                        -49.671740654768996,
                        59.595860181187739
                    ],
                    [
                        -50.365919309788822,
                        59.428023721058693
                    ],
                    [
                        -51.054223332345757,
                        59.253187952373253
                    ],
                    [
                        -51.73644336932275,
                        59.071308528424424
                    ],
                    [
                        -52.41237191809509,
                        58.882340182040437
                    ],
                    [
                        -53.081803389644058,
                        58.686236818855775
                    ],
                    [
                        -53.744534171088368,
                        58.482951615587091
                    ],
                    [
                        -54.400362687614688,
                        58.272437123450246
                    ],
                    [
                        -55.049089463788178,
                        58.054645376851859
                    ],
                    [
                        -55.690517184224575,
                        57.829528007485024
                    ],
                    [
                        -56.32445075360517,
                        57.597036363953599
                    ],
                    [
                        -56.950697356016626,
                        57.357121637043448
                    ],
                    [
                        -57.569066513597484,
                        57.109734990751534
                    ],
                    [
                        -58.179370144473452,
                        56.854827699174564
                    ],
                    [
                        -58.78142261996404,
                        56.59235128934931
                    ],
                    [
                        -59.375040821043015,
                        56.322257690123777
                    ],
                    [
                        -59.960044194035447,
                        56.044499387126294
                    ],
                    [
                        -60.53625480553454,
                        55.759029583883283
                    ],
                    [
                        -61.103497396521561,
                        55.465802369120333
                    ],
                    [
                        -61.66159943567218,
                        55.164772890262427
                    ],
                    [
                        -62.210391171833265,
                        54.85589753312815
                    ],
                    [
                        -62.749705685654035,
                        54.539134107791007
                    ],
                    [
                        -63.279378940355905,
                        54.214442040555447
                    ],
                    [
                        -63.79924983162558,
                        53.881782571969723
                    ],
                    [
                        -64.309160236616208,
                        53.541118960768202
                    ],
                    [
                        -64.808955062041633,
                        53.192416693605509
                    ],
                    [
                        -65.298482291349387,
                        52.835643700412184
                    ],
                    [
                        -65.777593030957519,
                        52.470770575166171
                    ],
                    [
                        -66.246141555542025,
                        52.097770801838152
                    ],
                    [
                        -66.703985352360093,
                        51.716620985229298
                    ],
                    [
                        -67.150985164596648,
                        51.327301086379599
                    ],
                    [
                        -67.587005033720345,
                        50.929794662181926
                    ],
                    [
                        -68.011912340836474,
                        50.524089108792765
                    ],
                    [
                        -68.425577847024016,
                        50.110175908384747
                    ],
                    [
                        -68.827875732644699,
                        49.688050878738466
                    ],
                    [
                        -69.218683635612038,
                        49.257714425122884
                    ],
                    [
                        -69.597882688608692,
                        48.819171793864115
                    ],
                    [
                        -69.965357555240999,
                        48.372433326952276
                    ],
                    [
                        -70.320996465119308,
                        47.917514716985835
                    ],
                    [
                        -70.664691247853995,
                        47.454437261702289
                    ],
                    [
                        -70.99633736595618,
                        46.983228117294395
                    ],
                    [
                        -71.315833946633745,
                        46.503920549661451
                    ],
                    [
                        -71.623083812472558,
                        46.016554182697782
                    ],
                    [
                        -71.917993510993711,
                        45.521175242674104
                    ],
                    [
                        -72.200473343077931,
                        45.017836797723369
                    ],
                    [
                        -72.470437390248193,
                        44.506598991402129
                    ],
                    [
                        -72.727803540802483,
                        43.987529269259952
                    ],
                    [
                        -72.972493514788823,
                        43.460702597316406
                    ],
                    [
                        -73.204432887814676,
                        42.92620167131502
                    ],
                    [
                        -73.4235511136837,
                        42.384117115600368
                    ],
                    [
                        -73.62978154585295,
                        41.834547670445332
                    ],
                    [
                        -73.823061457703986,
                        41.277600366643945
                    ],
                    [
                        -74.003332061621705,
                        40.713390686179963
                    ]
                ]
            }
        }
    ]
}